{
  "type": "FeatureCollection",
  "features": [
    {
      "type": "Feature",
      "properties": {
        "norad_id": 29914,
        "name": "FENGYUN 1C DEB",
        "group": "fengyun-1c-debris",
        "lat": -54.53445401212443,
        "lon": -166.2060556946832,
        "alt_km": 913.3743900430045,
        "timestamp": "2025-12-24T03:53:29.919288+00:00",
        "meta_object_name": "FENGYUN 1C DEB",
        "meta_object_id": "1999-025HL",
        "meta_epoch": "2025-12-23T01:21:52.841376",
        "meta_mean_motion": 14.03132737,
        "meta_eccentricity": 0.003672,
        "meta_inclination": 98.8424,
        "meta_ra_of_asc_node": 25.3417,
        "meta_arg_of_pericenter": 86.9422,
        "meta_mean_anomaly": 328.2566,
        "meta_ephemeris_type": 0,
        "meta_classification_type": "U",
        "meta_norad_cat_id": 29914,
        "meta_element_set_no": 999,
        "meta_rev_at_epoch": 96931,
        "meta_bstar": -2.6691102e-05,
        "meta_mean_motion_dot": -8.4e-07,
        "meta_mean_motion_ddot": 0,
        "tle_line1": "1 29914U 99025HL  25357.05686159 -.00000084  00000+0 -26691-4 0  9993",
        "tle_line2": "2 29914  98.8424  25.3417 0036720  86.9422 328.2566 14.03132737969314"
      },
      "geometry": {
        "type": "Point",
        "coordinates": [
          -166.2060556946832,
          -54.53445401212443
        ]
      }
    },
    {
      "type": "Feature",
      "properties": {
        "norad_id": 29916,
        "name": "FENGYUN 1C DEB",
        "group": "fengyun-1c-debris",
        "lat": 41.313521461084015,
        "lon": -155.14397432815628,
        "alt_km": 1042.422675641984,
        "timestamp": "2025-12-24T03:53:29.919298+00:00",
        "meta_object_name": "FENGYUN 1C DEB",
        "meta_object_id": "1999-025HN",
        "meta_epoch": "2025-12-22T07:33:42.228576",
        "meta_mean_motion": 13.56995113,
        "meta_eccentricity": 0.02714544,
        "meta_inclination": 99.1936,
        "meta_ra_of_asc_node": 14.9449,
        "meta_arg_of_pericenter": 233.9999,
        "meta_mean_anomaly": 248.4533,
        "meta_ephemeris_type": 0,
        "meta_classification_type": "U",
        "meta_norad_cat_id": 29916,
        "meta_element_set_no": 999,
        "meta_rev_at_epoch": 93582,
        "meta_bstar": 0.0005903712,
        "meta_mean_motion_dot": 4.91e-06,
        "meta_mean_motion_ddot": 0,
        "tle_line1": "1 29916U 99025HN  25356.31507209  .00000491  00000+0  59037-3 0  9990",
        "tle_line2": "2 29916  99.1936  14.9449 0271454 233.9999 248.4533 13.56995113935823"
      },
      "geometry": {
        "type": "Point",
        "coordinates": [
          -155.14397432815628,
          41.313521461084015
        ]
      }
    },
    {
      "type": "Feature",
      "properties": {
        "norad_id": 29917,
        "name": "FENGYUN 1C DEB",
        "group": "fengyun-1c-debris",
        "lat": 60.52911933605188,
        "lon": -157.11988077068455,
        "alt_km": 851.637632163659,
        "timestamp": "2025-12-24T03:53:29.919308+00:00",
        "meta_object_name": "FENGYUN 1C DEB",
        "meta_object_id": "1999-025HP",
        "meta_epoch": "2025-12-23T02:02:30.528384",
        "meta_mean_motion": 13.70438382,
        "meta_eccentricity": 0.02233965,
        "meta_inclination": 98.8764,
        "meta_ra_of_asc_node": 217.9383,
        "meta_arg_of_pericenter": 96.9238,
        "meta_mean_anomaly": 55.2555,
        "meta_ephemeris_type": 0,
        "meta_classification_type": "U",
        "meta_norad_cat_id": 29917,
        "meta_element_set_no": 999,
        "meta_rev_at_epoch": 94272,
        "meta_bstar": 0.0013371857,
        "meta_mean_motion_dot": 1.373e-05,
        "meta_mean_motion_ddot": 0,
        "tle_line1": "1 29917U 99025HP  25357.08507556  .00001373  00000+0  13372-2 0  9992",
        "tle_line2": "2 29917  98.8764 217.9383 0223396  96.9238  55.2555 13.70438382942727"
      },
      "geometry": {
        "type": "Point",
        "coordinates": [
          -157.11988077068455,
          60.52911933605188
        ]
      }
    },
    {
      "type": "Feature",
      "properties": {
        "norad_id": 29918,
        "name": "FENGYUN 1C DEB",
        "group": "fengyun-1c-debris",
        "lat": -32.1033971029312,
        "lon": 86.47361157956809,
        "alt_km": 778.9334461002609,
        "timestamp": "2025-12-24T03:53:29.919319+00:00",
        "meta_object_name": "FENGYUN 1C DEB",
        "meta_object_id": "1999-025HQ",
        "meta_epoch": "2025-12-23T04:50:45.223584",
        "meta_mean_motion": 14.33674412,
        "meta_eccentricity": 0.00134424,
        "meta_inclination": 98.854,
        "meta_ra_of_asc_node": 79.8794,
        "meta_arg_of_pericenter": 283.2609,
        "meta_mean_anomaly": 130.9818,
        "meta_ephemeris_type": 0,
        "meta_classification_type": "U",
        "meta_norad_cat_id": 29918,
        "meta_element_set_no": 999,
        "meta_rev_at_epoch": 97944,
        "meta_bstar": 0.0013717421,
        "meta_mean_motion_dot": 3.764e-05,
        "meta_mean_motion_ddot": 0,
        "tle_line1": "1 29918U 99025HQ  25357.20191231  .00003764  00000+0  13717-2 0  9995",
        "tle_line2": "2 29918  98.8540  79.8794 0013442 283.2609 130.9818 14.33674412979441"
      },
      "geometry": {
        "type": "Point",
        "coordinates": [
          86.47361157956809,
          -32.1033971029312
        ]
      }
    },
    {
      "type": "Feature",
      "properties": {
        "norad_id": 29919,
        "name": "FENGYUN 1C DEB",
        "group": "fengyun-1c-debris",
        "lat": 79.86387218619141,
        "lon": 94.94655646844072,
        "alt_km": 1004.7450251327064,
        "timestamp": "2025-12-24T03:53:29.919329+00:00",
        "meta_object_name": "FENGYUN 1C DEB",
        "meta_object_id": "1999-025HR",
        "meta_epoch": "2025-12-23T08:41:55.692096",
        "meta_mean_motion": 13.85127462,
        "meta_eccentricity": 0.0136938,
        "meta_inclination": 98.4796,
        "meta_ra_of_asc_node": 150.7805,
        "meta_arg_of_pericenter": 314.606,
        "meta_mean_anomaly": 103.1737,
        "meta_ephemeris_type": 0,
        "meta_classification_type": "U",
        "meta_norad_cat_id": 29919,
        "meta_element_set_no": 999,
        "meta_rev_at_epoch": 95682,
        "meta_bstar": 0.00015449,
        "meta_mean_motion_dot": 1.49e-06,
        "meta_mean_motion_ddot": 0,
        "tle_line1": "1 29919U 99025HR  25357.36245014  .00000149  00000+0  15449-3 0  9991",
        "tle_line2": "2 29919  98.4796 150.7805 0136938 314.6060 103.1737 13.85127462956822"
      },
      "geometry": {
        "type": "Point",
        "coordinates": [
          94.94655646844072,
          79.86387218619141
        ]
      }
    },
    {
      "type": "Feature",
      "properties": {
        "norad_id": 29920,
        "name": "FENGYUN 1C DEB",
        "group": "fengyun-1c-debris",
        "lat": 2.3690903606867884,
        "lon": -148.5625712123369,
        "alt_km": 919.5677487661214,
        "timestamp": "2025-12-24T03:53:29.919351+00:00",
        "meta_object_name": "FENGYUN 1C DEB",
        "meta_object_id": "1999-025HS",
        "meta_epoch": "2025-12-21T12:34:58.800288",
        "meta_mean_motion": 14.03693596,
        "meta_eccentricity": 0.01249732,
        "meta_inclination": 98.3912,
        "meta_ra_of_asc_node": 209.3515,
        "meta_arg_of_pericenter": 255.9523,
        "meta_mean_anomaly": 102.7727,
        "meta_ephemeris_type": 0,
        "meta_classification_type": "U",
        "meta_norad_cat_id": 29920,
        "meta_element_set_no": 999,
        "meta_rev_at_epoch": 96411,
        "meta_bstar": 0.0011522683,
        "meta_mean_motion_dot": 1.901e-05,
        "meta_mean_motion_ddot": 0,
        "tle_line1": "1 29920U 99025HS  25355.52429167  .00001901  00000+0  11523-2 0  9997",
        "tle_line2": "2 29920  98.3912 209.3515 0124973 255.9523 102.7727 14.03693596964111"
      },
      "geometry": {
        "type": "Point",
        "coordinates": [
          -148.5625712123369,
          2.3690903606867884
        ]
      }
    },
    {
      "type": "Feature",
      "properties": {
        "norad_id": 29921,
        "name": "FENGYUN 1C DEB",
        "group": "fengyun-1c-debris",
        "lat": -41.30547124858343,
        "lon": 11.759780106465941,
        "alt_km": 871.2899294585523,
        "timestamp": "2025-12-24T03:53:29.919362+00:00",
        "meta_object_name": "FENGYUN 1C DEB",
        "meta_object_id": "1999-025HT",
        "meta_epoch": "2025-12-22T23:22:41.507328",
        "meta_mean_motion": 14.06654926,
        "meta_eccentricity": 0.0046115,
        "meta_inclination": 98.7867,
        "meta_ra_of_asc_node": 2.7951,
        "meta_arg_of_pericenter": 41.3461,
        "meta_mean_anomaly": 24.409,
        "meta_ephemeris_type": 0,
        "meta_classification_type": "U",
        "meta_norad_cat_id": 29921,
        "meta_element_set_no": 999,
        "meta_rev_at_epoch": 97020,
        "meta_bstar": 0.00042357877,
        "meta_mean_motion_dot": 6.67e-06,
        "meta_mean_motion_ddot": 0,
        "tle_line1": "1 29921U 99025HT  25356.97409152  .00000667  00000+0  42358-3 0  9999",
        "tle_line2": "2 29921  98.7867   2.7951 0046115  41.3461  24.4090 14.06654926970200"
      },
      "geometry": {
        "type": "Point",
        "coordinates": [
          11.759780106465941,
          -41.30547124858343
        ]
      }
    }
  ]
}